{
  "links" : {
    "next" : "https://api.nasa.gov/neo/rest/v1/feed?start_date=2008-09-23&end_date=2008-09-23&detailed=true&api_key=t0TVs3DtDT2H8Oy2Zy8m2eVrNsAVKAexjcZXUckd",
    "prev" : "https://api.nasa.gov/neo/rest/v1/feed?start_date=2008-09-21&end_date=2008-09-21&detailed=true&api_key=t0TVs3DtDT2H8Oy2Zy8m2eVrNsAVKAexjcZXUckd",
    "self" : "https://api.nasa.gov/neo/rest/v1/feed?start_date=2008-09-22&end_date=2008-09-22&detailed=true&api_key=t0TVs3DtDT2H8Oy2Zy8m2eVrNsAVKAexjcZXUckd"
  },
  "element_count" : 6,
  "near_earth_objects" : {
    "2008-09-22" : [ {
      "links" : {
        "self" : "https://api.nasa.gov/neo/rest/v1/neo/3454530?api_key=t0TVs3DtDT2H8Oy2Zy8m2eVrNsAVKAexjcZXUckd"
      },
      "neo_reference_id" : "3454530",
      "name" : "(2009 FJ1)",
      "nasa_jpl_url" : "http://ssd.jpl.nasa.gov/sbdb.cgi?sstr=3454530",
      "absolute_magnitude_h" : 23.1,
      "estimated_diameter" : {
        "kilometers" : {
          "estimated_diameter_min" : 0.063760979,
          "estimated_diameter_max" : 0.1425738833
        },
        "meters" : {
          "estimated_diameter_min" : 63.7609789875,
          "estimated_diameter_max" : 142.5738833281
        },
        "miles" : {
          "estimated_diameter_min" : 0.0396192233,
          "estimated_diameter_max" : 0.0885912765
        },
        "feet" : {
          "estimated_diameter_min" : 209.1895703015,
          "estimated_diameter_max" : 467.7620993781
        }
      },
      "is_potentially_hazardous_asteroid" : false,
      "close_approach_data" : [ {
        "close_approach_date" : "2008-09-22",
        "epoch_date_close_approach" : 1222066800000,
        "relative_velocity" : {
          "kilometers_per_second" : "9.6618730167",
          "kilometers_per_hour" : "34782.7428602737",
          "miles_per_hour" : "21612.6437511517"
        },
        "miss_distance" : {
          "astronomical" : "0.3063861667",
          "lunar" : "119.1842193604",
          "kilometers" : "45834720",
          "miles" : "28480374"
        },
        "orbiting_body" : "Earth"
      } ],
      "orbital_data" : {
        "orbit_id" : "12",
        "orbit_determination_date" : "2017-04-06 09:00:59",
        "orbit_uncertainty" : "8",
        "minimum_orbit_intersection" : ".0551248",
        "jupiter_tisserand_invariant" : "5.435",
        "epoch_osculation" : "2454911.5",
        "eccentricity" : ".2196346596913461",
        "semi_major_axis" : "1.1382598332629",
        "inclination" : "18.89662781388802",
        "ascending_node_longitude" : "4.320532390424529",
        "orbital_period" : "443.5683426191887",
        "perihelion_distance" : ".8882585221438744",
        "perihelion_argument" : "86.28322877067059",
        "aphelion_distance" : "1.388261144381925",
        "perihelion_time" : "2454830.326492468186",
        "mean_anomaly" : "65.8804064755835",
        "mean_motion" : ".8115998492459287",
        "equinox" : "J2000"
      }
    }, {
      "links" : {
        "self" : "https://api.nasa.gov/neo/rest/v1/neo/2469356?api_key=t0TVs3DtDT2H8Oy2Zy8m2eVrNsAVKAexjcZXUckd"
      },
      "neo_reference_id" : "2469356",
      "name" : "469356 (2001 DR8)",
      "nasa_jpl_url" : "http://ssd.jpl.nasa.gov/sbdb.cgi?sstr=2469356",
      "absolute_magnitude_h" : 18.8,
      "estimated_diameter" : {
        "kilometers" : {
          "estimated_diameter_min" : 0.4619074603,
          "estimated_diameter_max" : 1.0328564805
        },
        "meters" : {
          "estimated_diameter_min" : 461.9074602816,
          "estimated_diameter_max" : 1032.8564805039
        },
        "miles" : {
          "estimated_diameter_min" : 0.2870159005,
          "estimated_diameter_max" : 0.6417870641
        },
        "feet" : {
          "estimated_diameter_min" : 1515.4444719902,
          "estimated_diameter_max" : 3388.6368554964
        }
      },
      "is_potentially_hazardous_asteroid" : false,
      "close_approach_data" : [ {
        "close_approach_date" : "2008-09-22",
        "epoch_date_close_approach" : 1222066800000,
        "relative_velocity" : {
          "kilometers_per_second" : "18.3107447027",
          "kilometers_per_hour" : "65918.6809295861",
          "miles_per_hour" : "40959.3048253864"
        },
        "miss_distance" : {
          "astronomical" : "0.3607373712",
          "lunar" : "140.3268432617",
          "kilometers" : "53965544",
          "miles" : "33532634"
        },
        "orbiting_body" : "Earth"
      } ],
      "orbital_data" : {
        "orbit_id" : "35",
        "orbit_determination_date" : "2017-04-06 09:19:17",
        "orbit_uncertainty" : "0",
        "minimum_orbit_intersection" : ".0790874",
        "jupiter_tisserand_invariant" : "3.597",
        "epoch_osculation" : "2458000.5",
        "eccentricity" : ".6727785463006467",
        "semi_major_axis" : "1.924915203740678",
        "inclination" : "6.578264580325592",
        "ascending_node_longitude" : "334.741507629982",
        "orbital_period" : "975.4742979860225",
        "perihelion_distance" : ".6298735512160116",
        "perihelion_argument" : "43.35796594067123",
        "aphelion_distance" : "3.219956856265345",
        "perihelion_time" : "2457667.630970074963",
        "mean_anomaly" : "122.8457285039921",
        "mean_motion" : ".3690512407587375",
        "equinox" : "J2000"
      }
    }, {
      "links" : {
        "self" : "https://api.nasa.gov/neo/rest/v1/neo/3430492?api_key=t0TVs3DtDT2H8Oy2Zy8m2eVrNsAVKAexjcZXUckd"
      },
      "neo_reference_id" : "3430492",
      "name" : "(2008 TP26)",
      "nasa_jpl_url" : "http://ssd.jpl.nasa.gov/sbdb.cgi?sstr=3430492",
      "absolute_magnitude_h" : 23.8,
      "estimated_diameter" : {
        "kilometers" : {
          "estimated_diameter_min" : 0.046190746,
          "estimated_diameter_max" : 0.1032856481
        },
        "meters" : {
          "estimated_diameter_min" : 46.1907460282,
          "estimated_diameter_max" : 103.2856480504
        },
        "miles" : {
          "estimated_diameter_min" : 0.0287015901,
          "estimated_diameter_max" : 0.0641787064
        },
        "feet" : {
          "estimated_diameter_min" : 151.544447199,
          "estimated_diameter_max" : 338.8636855496
        }
      },
      "is_potentially_hazardous_asteroid" : false,
      "close_approach_data" : [ {
        "close_approach_date" : "2008-09-22",
        "epoch_date_close_approach" : 1222066800000,
        "relative_velocity" : {
          "kilometers_per_second" : "8.4085085026",
          "kilometers_per_hour" : "30270.6306092131",
          "miles_per_hour" : "18808.9926693747"
        },
        "miss_distance" : {
          "astronomical" : "0.1904686948",
          "lunar" : "74.0923233032",
          "kilometers" : "28493712",
          "miles" : "17705172"
        },
        "orbiting_body" : "Earth"
      } ],
      "orbital_data" : {
        "orbit_id" : "9",
        "orbit_determination_date" : "2017-04-06 09:02:36",
        "orbit_uncertainty" : "2",
        "minimum_orbit_intersection" : ".0777859",
        "jupiter_tisserand_invariant" : "5.610",
        "epoch_osculation" : "2458000.5",
        "eccentricity" : ".2873539293935374",
        "semi_major_axis" : "1.094292144087019",
        "inclination" : "13.32435857537372",
        "ascending_node_longitude" : "12.31799321732722",
        "orbital_period" : "418.1175038696484",
        "perihelion_distance" : ".779842996579135",
        "perihelion_argument" : "241.7015971905415",
        "aphelion_distance" : "1.408741291594903",
        "perihelion_time" : "2457984.536502909446",
        "mean_anomaly" : "13.74460265215551",
        "mean_motion" : ".8610019830985908",
        "equinox" : "J2000"
      }
    } ]
  }
}